GAOFEN-11 01            
1 43585U 18063A   26203.61306495  .00020608  00000+0  29474-3 0  9994
2 43585  97.1269 270.4117 0003957 171.7241 188.4080 15.56238511445852
ICESAT-2                
1 43613U 18070A   26203.51412850  .00009053  00000+0  32878-3 0  9999
2 43613  92.0084 300.5261 0004700  42.0233 318.1376 15.28265089437856
HYSIS                   
1 43719U 18096A   26203.60303949  .00000762  00000+0  11115-3 0  9991
2 43719  97.9819 270.0702 0001668  73.8765 286.2630 14.78620301412651
KAZSTSAT                
1 43783U 18099AB  26203.52148855  .00000185  00000+0  19413-4 0  9998
2 43783  97.4303 233.8591 0007190 309.7222  50.3368 14.99960745416602
SAUDISAT 5A             
1 43831U 18102A   26203.58826505  .00005430  00000+0  19898-3 0  9992
2 43831  97.3047 264.4902 0009697  19.6756 340.4856 15.28372642421088
SAUDISAT 5B             
1 43833U 18102C   26203.60136403  .00005317  00000+0  19343-3 0  9997
2 43833  97.3156 267.6370 0010505  20.8969 339.2698 15.28613400421209
GAOFEN-10R              
1 44622U 19066A   26203.64291700  .00000935  00000+0  12154-3 0  9994
2 44622  98.0513 157.4837 0006448  32.6715 327.4896 14.83068799367636
CARTOSAT-3              
1 44804U 19081A   26203.59208979  .00005372  00000+0  25783-3 0  9995
2 44804  97.4283 264.8848 0012342  35.7716 324.4343 15.19220049368841
GAOFEN-12 01            
1 44819U 19082A   26203.63063058  .00000297  00000+0  45457-4 0  9996
2 44819  97.8114 209.0766 0000655  73.4375 286.6909 14.80483685359333
CSG-1                   
1 44873U 19092A   26203.62940072  .00000328  00000+0  47778-4 0  9999
2 44873  97.8900  26.7208 0001458  94.7387 265.3993 14.82161059356729
NEMO-HD                 
1 46277U 20061F   26203.62367058  .00011527  00000+0  24415-3 0  9999
2 46277  97.1899 265.2305 0001076 118.2820 241.8538 15.45254351327457
SENTINEL-6A             
1 46984U 20086A   26203.61003189 -.00000065  00000+0 -15729-4 0  9998
2 46984  66.0410  61.4791 0007778 269.6002  90.4122 12.80930270264868
CAS500-1                
1 47932U 21022A   26203.67423455  .00006136  00000+0  28680-3 0  9993
2 47932  97.3852  98.2007 0005871 145.3237 214.8382 15.20129587296154
GAOFEN-12 02            
1 48079U 21026A   26203.64550870  .00000287  00000+0  44563-4 0  9999
2 48079  97.9941 201.6845 0006169 113.0462 247.1401 14.80320011287000
PLEIADES NEO 3          
1 48268U 21034A   26203.64018466  .00001694  00000+0  22187-3 0  9998
2 48268  97.8937 277.8969 0001424  99.4179 260.7195 14.81668633282908
PLEIADES NEO 4          
1 49070U 21073E   26203.60638451  .00000379  00000+0  54819-4 0  9998
2 49070  97.8936 277.8597 0001405  96.8426 263.2946 14.81672645266611
LANDSAT 9               
1 49260U 21088A   26203.42422544  .00000255  00000+0  66666-4 0  9995
2 49260  98.2263 273.1720 0001064  94.5920 265.5400 14.57099187256135
CSG-2                   
1 51444U 22008A   26203.59562919  .00000138  00000+0  23855-4 0  9997
2 51444  97.8903  26.6811 0001502  91.1130 269.0256 14.82148566241836
GAOFEN-12 03            
1 52912U 22069A   26203.61382955  .00000131  00000+0  23919-4 0  9992
2 52912  97.8229  90.5830 0002312  65.5221 294.6232 14.80081974219857
SWOT                    
1 54754U 22173A   26203.50099073  .00000078  00000+0  54522-4 0  9992
2 54754  77.6118 347.6355 0000212  71.1073 289.0101 14.00172726184097
GAOFEN-12 04            
1 57654U 23123A   26203.63501963  .00000757  00000+0  10743-3 0  9990
2 57654  97.9094 121.1207 0003082  34.4097 325.7314 14.79785055157875
PARS 1                  
1 59065U 24039Q   26203.58781816  .00011674  00000+0  23753-3 0  9991
2 59065  97.4848 185.6457 0008789   1.0243 359.1022 15.46406187134119
RESURS-P 4              
1 59371U 24061A   26203.59413855  .00002857  00000+0  94030-4 0  9992
2 59371  97.2758 150.8833 0003205  79.3027 280.8576 15.32310674129180
LEGION 1                
1 59625U 24081A   26203.52149849  .00003224  00000+0  16709-3 0  9993
2 59625  97.5002 281.0040 0007931 238.9940 121.0515 15.16876988122898
LEGION 2                
1 59626U 24081B   26203.55198970  .00003674  00000+0  18991-3 0  9990
2 59626  97.5003 281.1308 0010825 205.5386 154.5314 15.16857786122903
ALOS-4 (DAICHI-4)       
1 60182U 24123A   26203.59813838  .00001118  00000+0  15661-3 0  9999
2 60182  97.9221 300.2657 0001571  98.6777 261.4612 14.79473721111112
LEGION 3                
1 60452U 24146A   26203.38881283  .00002913  00000+0  16399-3 0  9993
2 60452  44.9999 201.8289 0007423  14.0413 346.0671 15.15683119107366
LEGION 4                
1 60453U 24146B   26203.58612157  .00003677  00000+0  20316-3 0  9990
2 60453  45.0022 292.6387 0009524 158.9626 201.1646 15.15719389106249
SENTINEL-2C             
1 60989U 24157A   26203.48725095  .00000056  00000+0  38006-4 0  9995
2 60989  98.5679 277.7674 0001032 108.4463 251.6833 14.30817131 98037
IONOSFERA-M 1           
1 61735U 24199A   26203.56765611  .00000020  00000+0  28366-4 0  9997
2 61735  98.7125  76.3585 0002040  62.4813 297.6572 14.22760156132738
