OBJECT_NAME,OBJECT_ID,EPOCH,MEAN_MOTION,ECCENTRICITY,INCLINATION,RA_OF_ASC_NODE,ARG_OF_PERICENTER,MEAN_ANOMALY,EPHEMERIS_TYPE,CLASSIFICATION_TYPE,NORAD_CAT_ID,ELEMENT_SET_NO,REV_AT_EPOCH,BSTAR,MEAN_MOTION_DOT,MEAN_MOTION_DDOT
GAOFEN-11 01,2018-063A,2026-07-22T14:42:48.811680,15.56238511,.00039579,97.1269,270.4117,171.7241,188.4080,0,U,43585,999,44585,.29473964E-3,.20608E-3,0
ICESAT-2,2018-070A,2026-07-22T12:20:20.702400,15.28265089,.00047,92.0084,300.5261,42.0233,318.1376,0,U,43613,999,43785,.3287774E-3,.9053E-4,0
HYSIS,2018-096A,2026-07-22T14:28:22.611936,14.78620301,.00016685,97.9819,270.0702,73.8765,286.2630,0,U,43719,999,41265,.11115476E-3,.762E-5,0
KAZSTSAT,2018-099AB,2026-07-22T12:30:56.610720,14.99960745,.00071907,97.4303,233.8591,309.7222,50.3368,0,U,43783,999,41660,.19413296E-4,.185E-5,0
SAUDISAT 5A,2018-102A,2026-07-22T14:07:06.100320,15.28372642,.00096977,97.3047,264.4902,19.6756,340.4856,0,U,43831,999,42108,.19898333E-3,.543E-4,0
SAUDISAT 5B,2018-102C,2026-07-22T14:25:57.852192,15.28613400,.00105053,97.3156,267.6370,20.8969,339.2698,0,U,43833,999,42120,.19342759E-3,.5317E-4,0
GAOFEN-10R,2019-066A,2026-07-22T15:25:48.028800,14.83068799,.00064488,98.0513,157.4837,32.6715,327.4896,0,U,44622,999,36763,.12154442E-3,.935E-5,0
CARTOSAT-3,2019-081A,2026-07-22T14:12:36.557856,15.19220049,.00123422,97.4283,264.8848,35.7716,324.4343,0,U,44804,999,36884,.25782835E-3,.5372E-4,0
GAOFEN-12 01,2019-082A,2026-07-22T15:08:06.482112,14.80483685,.00006555,97.8114,209.0766,73.4375,286.6909,0,U,44819,999,35933,.45457242E-4,.297E-5,0
CSG-1,2019-092A,2026-07-22T15:06:20.222208,14.82161059,.0001458,97.8900,26.7208,94.7387,265.3993,0,U,44873,999,35672,.4777846E-4,.328E-5,0
NEMO-HD,2020-061F,2026-07-22T14:58:05.138112,15.45254351,.00010764,97.1899,265.2305,118.2820,241.8538,0,U,46277,999,32745,.24414886E-3,.11527E-3,0
SENTINEL-6A,2020-086A,2026-07-22T14:38:26.755296,12.80930270,.00077782,66.0410,61.4791,269.6002,90.4122,0,U,46984,999,26486,-.15729386E-4,-.65E-6,0
CAS500-1,2021-022A,2026-07-22T16:10:53.865120,15.20129587,.00058717,97.3852,98.2007,145.3237,214.8382,0,U,47932,999,29615,.28680022E-3,.6136E-4,0
GAOFEN-12 02,2021-026A,2026-07-22T15:29:31.951680,14.80320011,.00061696,97.9941,201.6845,113.0462,247.1401,0,U,48079,999,28700,.44563426E-4,.287E-5,0
PLEIADES NEO 3,2021-034A,2026-07-22T15:21:51.954624,14.81668633,.00014242,97.8937,277.8969,99.4179,260.7195,0,U,48268,999,28290,.22186597E-3,.1694E-4,0
PLEIADES NEO 4,2021-073E,2026-07-22T14:33:11.621664,14.81672645,.00014052,97.8936,277.8597,96.8426,263.2946,0,U,49070,999,26661,.54819418E-4,.379E-5,0
LANDSAT 9,2021-088A,2026-07-22T10:10:53.078016,14.57099187,.00010647,98.2263,273.1720,94.5920,265.5400,0,U,49260,999,25613,.66666424E-4,.255E-5,0
CSG-2,2022-008A,2026-07-22T14:17:42.362016,14.82148566,.00015024,97.8903,26.6811,91.1130,269.0256,0,U,51444,999,24183,.23854602E-4,.138E-5,0
GAOFEN-12 03,2022-069A,2026-07-22T14:43:54.873120,14.80081974,.00023123,97.8229,90.5830,65.5221,294.6232,0,U,52912,999,21985,.23918689E-4,.131E-5,0
SWOT,2022-173A,2026-07-22T12:01:25.599072,14.00172726,.00002126,77.6118,347.6355,71.1073,289.0101,0,U,54754,999,18409,.5452153E-4,.78E-6,0
GAOFEN-12 04,2023-123A,2026-07-22T15:14:25.696032,14.79785055,.00030824,97.9094,121.1207,34.4097,325.7314,0,U,57654,999,15787,.10742848E-3,.757E-5,0
PARS 1,2024-039Q,2026-07-22T14:06:27.489024,15.46406187,.00087896,97.4848,185.6457,1.0243,359.1022,0,U,59065,999,13411,.23752808E-3,.11674E-3,0
RESURS-P 4,2024-061A,2026-07-22T14:15:33.570720,15.32310674,.00032058,97.2758,150.8833,79.3027,280.8576,0,U,59371,999,12918,.94030295E-4,.2857E-4,0
LEGION 1,2024-081A,2026-07-22T12:30:57.469536,15.16876988,.00079318,97.5002,281.0040,238.9940,121.0515,0,U,59625,999,12289,.16708619E-3,.3224E-4,0
LEGION 2,2024-081B,2026-07-22T13:14:51.910080,15.16857786,.00108252,97.5003,281.1308,205.5386,154.5314,0,U,59626,999,12290,.18991297E-3,.3674E-4,0
ALOS-4 (DAICHI-4),2024-123A,2026-07-22T14:21:19.156032,14.79473721,.00015714,97.9221,300.2657,98.6777,261.4612,0,U,60182,999,11111,.15660745E-3,.1118E-4,0
LEGION 3,2024-146A,2026-07-22T09:19:53.428512,15.15683119,.00074236,44.9999,201.8289,14.0413,346.0671,0,U,60452,999,10736,.1639857E-3,.2913E-4,0
LEGION 4,2024-146B,2026-07-22T14:04:00.903648,15.15719389,.00095246,45.0022,292.6387,158.9626,201.1646,0,U,60453,999,10624,.20316084E-3,.3677E-4,0
SENTINEL-2C,2024-157A,2026-07-22T11:41:38.482080,14.30817131,.00010328,98.5679,277.7674,108.4463,251.6833,0,U,60989,999,9803,.38005956E-4,.56E-6,0
IONOSFERA-M 1,2024-199A,2026-07-22T13:37:25.487904,14.22760156,.00020401,98.7125,76.3585,62.4813,297.6572,0,U,61735,999,13273,.28365702E-4,.2E-6,0
